{
    "links": {
        "self": "http://www.neowsapp.com/rest/v1/neo/3771600?api_key=iIulBulltgU6a56xZRHN4H3l9WmuAYTsLGpBGhQ2"
    },
    "id": "3771600",
    "neo_reference_id": "3771600",
    "name": "(2017 EB23)",
    "designation": "2017 EB23",
    "nasa_jpl_url": "http://ssd.jpl.nasa.gov/sbdb.cgi?sstr=3771600",
    "absolute_magnitude_h": 25.122,
    "estimated_diameter": {
        "kilometers": {
            "estimated_diameter_min": 0.0251278295,
            "estimated_diameter_max": 0.0561875349
        },
        "meters": {
            "estimated_diameter_min": 25.1278295016,
            "estimated_diameter_max": 56.1875348925
        },
        "miles": {
            "estimated_diameter_min": 0.0156137045,
            "estimated_diameter_max": 0.0349133047
        },
        "feet": {
            "estimated_diameter_min": 82.4403881419,
            "estimated_diameter_max": 184.3423119768
        }
    },
    "is_potentially_hazardous_asteroid": false,
    "close_approach_data": [
        {
            "close_approach_date": "2017-03-09",
            "close_approach_date_full": "2017-Mar-09 00:39",
            "epoch_date_close_approach": 1489019940000,
            "relative_velocity": {
                "kilometers_per_second": "8.9040784656",
                "kilometers_per_hour": "32054.6824762562",
                "miles_per_hour": "19917.5331197604"
            },
            "miss_distance": {
                "astronomical": "0.058315811",
                "lunar": "22.684850479",
                "kilometers": "8723921.11292257",
                "miles": "5420793.214048666"
            },
            "orbiting_body": "Earth"
        }
    ],
    "orbital_data": {
        "orbit_id": "2",
        "orbit_determination_date": "2017-04-06 08:19:32",
        "first_observation_date": "2017-03-02",
        "last_observation_date": "2017-03-07",
        "data_arc_in_days": 5,
        "observations_used": 14,
        "orbit_uncertainty": "9",
        "minimum_orbit_intersection": ".01901",
        "jupiter_tisserand_invariant": "3.514",
        "epoch_osculation": "2457816.5",
        "eccentricity": ".5287545116893019",
        "semi_major_axis": "2.142757651904428",
        "inclination": "4.89144042647436",
        "ascending_node_longitude": "356.0333767228411",
        "orbital_period": "1145.665958238805",
        "perihelion_distance": "1.009764876003187",
        "perihelion_argument": "194.3602936185989",
        "aphelion_distance": "3.275750427805668",
        "perihelion_time": "2457837.998764151193",
        "mean_anomaly": "353.2444923943387",
        "mean_motion": ".3142277183075392",
        "equinox": "J2000",
        "orbit_class": {
            "orbit_class_type": "APO",
            "orbit_class_description": "Near-Earth asteroid orbits which cross the Earth’s orbit similar to that of 1862 Apollo",
            "orbit_class_range": "a (semi-major axis) > 1.0 AU; q (perihelion) < 1.017 AU"
        }
    },
    "is_sentry_object": false
}